
# Worst residual: 40.75 km
# MJD 56866.000000 (2014 Jul 28  0:00)
2010-050B = RV223A9 = Chang'e 2 hardware
1 99999U 10050B   14209.49922241  .00000000  00000-0  00000-0 0    03
2 99999 046.4190 252.8962 3188054 315.4202 121.1808 00.03076293    02

# Worst residual: 32.80 km
# MJD 56867.000000 (2014 Jul 29  0:00)
2010-050B = RV223A9 = Chang'e 2 hardware
1 99999U 10050B   14210.49922241  .00000000  00000-0  00000-0 0    05
2 99999 046.4752 252.3944 3277087 315.0389 132.6284 00.03117894    06

# Worst residual: 30.09 km
# MJD 56868.000000 (2014 Jul 30  0:00)
2010-050B = RV223A9 = Chang'e 2 hardware
1 99999U 10050B   14211.49922241  .00000000  00000-0  00000-0 0    06
2 99999 046.5481 251.9939 3349700 315.4229 143.1634 00.03142134    05

# Worst residual: 29.55 km
# MJD 56869.000000 (2014 Jul 31  0:00)
2010-050B = RV223A9 = Chang'e 2 hardware
1 99999U 10050B   14212.49922241  .00000000  00000-0  00000-0 0    07
2 99999 046.6002 251.7288 3406403 316.1693 153.1958 00.03157606    07

# Worst residual: 29.22 km
# MJD 56870.000000 (2014 Aug  1  0:00)
2010-050B = RV223A9 = Chang'e 2 hardware
1 99999U 10050B   14213.49922241  .00000000  00000-0  00000-0 0    08
2 99999 046.6053 251.5905 3449966 317.0545 163.0059 00.03169361    07

# Worst residual: 28.16 km
# MJD 56871.000000 (2014 Aug  2  0:00)
2010-050B = RV223A9 = Chang'e 2 hardware
1 99999U 10050B   14214.49922241  .00000000  00000-0  00000-0 0    09
2 99999 046.5605 251.5348 3481592 317.9822 172.7665 00.03179499    01

# Worst residual: 26.30 km
# MJD 56872.000000 (2014 Aug  3  0:00)
2010-050B = RV223A9 = Chang'e 2 hardware
1 99999U 10050B   14215.49922241  .00000000  00000-0  00000-0 0    00
2 99999 046.4887 251.5022 3499317 318.9320 182.5583 00.03187782    01

# Worst residual: 25.09 km
# MJD 56873.000000 (2014 Aug  4  0:00)
2010-050B = RV223A9 = Chang'e 2 hardware
1 99999U 10050B   14216.49922241  .00000000  00000-0  00000-0 0    01
2 99999 046.4281 251.4437 3499068 319.9106 192.3880 00.03192791    09

# Worst residual: 27.37 km
# MJD 56874.000000 (2014 Aug  5  0:00)
2010-050B = RV223A9 = Chang'e 2 hardware
1 99999U 10050B   14217.49922241  .00000000  00000-0  00000-0 0    02
2 99999 046.4088 251.3437 3477860 320.9190 202.2081 00.03193565    08

# Worst residual: 32.11 km
# MJD 56875.000000 (2014 Aug  6  0:00)
2010-050B = RV223A9 = Chang'e 2 hardware
1 99999U 10050B   14218.49922241  .00000000  00000-0  00000-0 0    03
2 99999 046.4263 251.2245 3436548 321.9524 211.9357 00.03190899    09

# Worst residual: 37.52 km
# MJD 56876.000000 (2014 Aug  7  0:00)
2010-050B = RV223A9 = Chang'e 2 hardware
1 99999U 10050B   14219.49922241  .00000000  00000-0  00000-0 0    04
2 99999 046.4315 251.1239 3378873 323.0096 221.4928 00.03187021    05

# Worst residual: 42.37 km
# MJD 56877.000000 (2014 Aug  8  0:00)
2010-050B = RV223A9 = Chang'e 2 hardware
1 99999U 10050B   14220.49922241  .00000000  00000-0  00000-0 0    06
2 99999 046.3479 251.0596 3307534 324.0657 230.8910 00.03183388    07

# Worst residual: 45.68 km
# MJD 56878.000000 (2014 Aug  9  0:00)
2010-050B = RV223A9 = Chang'e 2 hardware
1 99999U 10050B   14221.49922241  .00000000  00000-0  00000-0 0    07
2 99999 046.1167 251.0048 3222298 324.9929 240.3438 00.03177995    03

# Worst residual: 46.46 km
# MJD 56879.000000 (2014 Aug 10  0:00)
2010-050B = RV223A9 = Chang'e 2 hardware
1 99999U 10050B   14222.49922241  .00000000  00000-0  00000-0 0    08
2 99999 045.7432 250.8968 3123545 325.4799 250.3254 00.03163926    03

# Worst residual: 46.48 km
# MJD 56880.000000 (2014 Aug 11  0:00)
2010-050B = RV223A9 = Chang'e 2 hardware
1 99999U 10050B   14223.49922241  .00000000  00000-0  00000-0 0    09
2 99999 045.3126 250.6792 3020426 325.0277 261.4941 00.03130134    04

# Worst residual: 55.28 km
# MJD 56881.000000 (2014 Aug 12  0:00)
2010-050B = RV223A9 = Chang'e 2 hardware
1 99999U 10050B   14224.49922241  .00000000  00000-0  00000-0 0    00
2 99999 044.9571 250.3499 2941158 323.1264 274.4301 00.03064603    03

# Worst residual: 78.57 km
# MJD 56882.000000 (2014 Aug 13  0:00)
2010-050B = RV223A9 = Chang'e 2 hardware
1 99999U 10050B   14225.49922241  .00000000  00000-0  00000-0 0    01
2 99999 044.7925 249.9700 2938225 319.6490 289.2253 00.02956561    07

# Worst residual: 112.17 km
# MJD 56883.000000 (2014 Aug 14  0:00)
2010-050B = RV223A9 = Chang'e 2 hardware
1 99999U 10050B   14226.49922241  .00000000  00000-0  00000-0 0    02
2 99999 044.8738 249.6018 3084728 315.1560 305.2416 00.02789866    01

# Worst residual: 157.63 km
# MJD 56884.000000 (2014 Aug 15  0:00)
2010-050B = RV223A9 = Chang'e 2 hardware
1 99999U 10050B   14227.49922241  .00000000  00000-0  00000-0 0    03
2 99999 045.2499 249.1274 3511765 310.6753 321.5032 00.02510930    08

# Worst residual: 637.64 km
# MJD 56885.000000 (2014 Aug 16  0:00)
2010-050B = RV223A9 = Chang'e 2 hardware
1 99999U 10050B   14228.49922241  .00000000  00000-0  00000-0 0    04
2 99999 044.9816 250.7151 2962846 316.5199 324.5215 00.02823798    02

# Worst residual: 1005.64 km
# MJD 56886.000000 (2014 Aug 17  0:00)
2010-050B = RV223A9 = Chang'e 2 hardware
1 99999U 10050B   14229.49922241  .00000000  00000-0  00000-0 0    05
2 99999 045.6360 249.8357 3765302 313.4419 339.1945 00.02448991    01

# Worst residual: 926.95 km
# MJD 56887.000000 (2014 Aug 18  0:00)
2010-050B = RV223A9 = Chang'e 2 hardware
1 99999U 10050B   14230.49922241  .00000000  00000-0  00000-0 0    07
2 99999 045.7594 249.8148 3923565 315.8542 347.4273 00.02400794    04

# Worst residual: 300.79 km
# MJD 56888.000000 (2014 Aug 19  0:00)
2010-050B = RV223A9 = Chang'e 2 hardware
1 99999U 10050B   14231.49922241  .00000000  00000-0  00000-0 0    08
2 99999 046.1635 249.4072 4237372 319.6174 354.9660 00.02269437    05

# Worst residual: 111.70 km
# MJD 56889.000000 (2014 Aug 20  0:00)
2010-050B = RV223A9 = Chang'e 2 hardware
1 99999U 10050B   14232.49922241  .00000000  00000-0  00000-0 0    09
2 99999 045.2331 250.2112 3300582 319.1005 004.2189 00.02727871    06

# Worst residual: 80.72 km
# MJD 56890.000000 (2014 Aug 21  0:00)
2010-050B = RV223A9 = Chang'e 2 hardware
1 99999U 10050B   14233.49922241  .00000000  00000-0  00000-0 0    00
2 99999 044.9627 250.3321 2887502 316.3978 016.5705 00.02944384    02

# Worst residual: 68.98 km
# MJD 56891.000000 (2014 Aug 22  0:00)
2010-050B = RV223A9 = Chang'e 2 hardware
1 99999U 10050B   14234.49922241  .00000000  00000-0  00000-0 0    01
2 99999 044.8135 250.3145 2710706 312.6037 030.2244 00.03063812    05
